[
  {
    "OBJECT_NAME": "STARLINK-2651",
    "OBJECT_ID": "21044S",
    "EPOCH": "2025-11-11T04:18:41.555232",
    "MEAN_MOTION": 16.0156329,
    "ECCENTRICITY": 0.0004671,
    "INCLINATION": 53.0467,
    "RA_OF_ASC_NODE": 269.995,
    "ARG_OF_PERICENTER": 131.8526,
    "MEAN_ANOMALY": 228.2904,
    "EPHEMERIS_TYPE": 0,
    "CLASSIFICATION_TYPE": "U",
    "NORAD_CAT_ID": 48654,
    "ELEMENT_SET_NO": 999,
    "REV_AT_EPOCH": 24617,
    "BSTAR": 0.0016611999999999998,
    "MEAN_MOTION_DOT": 0.00948229,
    "MEAN_MOTION_DDOT": 0.00045554,
    "TLE_LINE1": "1 48654U 21044S   25315.17964763  .00948229  45554-3  16612-2 0  9995",
    "TLE_LINE2": "2 48654  53.0467 269.9950 0004671 131.8526 228.2904 16.01563290246178",
    "COMMENT": "Grouped by shell and plane from TLE"
  }
]